{
  "type": "FeatureCollection",
  "features": [
    {
      "type": "Feature",
      "properties": {
        "norad_id": 30264,
        "name": "FENGYUN 1C DEB",
        "group": "fengyun-1c-debris",
        "lat": -78.32289790037957,
        "lon": 174.92834796865932,
        "alt_km": 800.1696351073524,
        "timestamp": "2025-12-15T15:53:20.127118+00:00",
        "meta_object_name": "FENGYUN 1C DEB",
        "meta_object_id": "1999-025XZ",
        "meta_epoch": "2025-12-14T22:26:20.390208",
        "meta_mean_motion": 14.07646906,
        "meta_eccentricity": 0.01073094,
        "meta_inclination": 98.9703,
        "meta_ra_of_asc_node": 44.0477,
        "meta_arg_of_pericenter": 281.1842,
        "meta_mean_anomaly": 259.1817,
        "meta_ephemeris_type": 0,
        "meta_classification_type": "U",
        "meta_norad_cat_id": 30264,
        "meta_element_set_no": 999,
        "meta_rev_at_epoch": 96588,
        "meta_bstar": 0.0010037465,
        "meta_mean_motion_dot": 1.742e-05,
        "meta_mean_motion_ddot": 0,
        "tle_line1": "1 30264U 99025XZ  25348.93495822  .00001742  00000+0  10037-2 0  9990",
        "tle_line2": "2 30264  98.9703  44.0477 0107309 281.1842 259.1817 14.07646906965887"
      },
      "geometry": {
        "type": "Point",
        "coordinates": [
          174.92834796865932,
          -78.32289790037957
        ]
      }
    },
    {
      "type": "Feature",
      "properties": {
        "norad_id": 30265,
        "name": "FENGYUN 1C DEB",
        "group": "fengyun-1c-debris",
        "lat": 77.379448248501,
        "lon": -38.17232550037777,
        "alt_km": 691.8910095994224,
        "timestamp": "2025-12-15T15:53:20.127127+00:00",
        "meta_object_name": "FENGYUN 1C DEB",
        "meta_object_id": "1999-025YA",
        "meta_epoch": "2025-12-14T20:15:25.969248",
        "meta_mean_motion": 14.5867296,
        "meta_eccentricity": 0.002822,
        "meta_inclination": 98.6632,
        "meta_ra_of_asc_node": 98.058,
        "meta_arg_of_pericenter": 6.5011,
        "meta_mean_anomaly": 119.4267,
        "meta_ephemeris_type": 0,
        "meta_classification_type": "U",
        "meta_norad_cat_id": 30265,
        "meta_element_set_no": 999,
        "meta_rev_at_epoch": 98432,
        "meta_bstar": 0.0013952251,
        "meta_mean_motion_dot": 6.493e-05,
        "meta_mean_motion_ddot": 0,
        "tle_line1": "1 30265U 99025YA  25348.84405057  .00006493  00000+0  13952-2 0  9999",
        "tle_line2": "2 30265  98.6632  98.0580 0028220   6.5011 119.4267 14.58672960984323"
      },
      "geometry": {
        "type": "Point",
        "coordinates": [
          -38.17232550037777,
          77.379448248501
        ]
      }
    },
    {
      "type": "Feature",
      "properties": {
        "norad_id": 30266,
        "name": "FENGYUN 1C DEB",
        "group": "fengyun-1c-debris",
        "lat": 13.755038903907366,
        "lon": 51.67876702679487,
        "alt_km": 799.6147021259958,
        "timestamp": "2025-12-15T15:53:20.127136+00:00",
        "meta_object_name": "FENGYUN 1C DEB",
        "meta_object_id": "1999-025YB",
        "meta_epoch": "2025-12-14T16:46:41.394144",
        "meta_mean_motion": 14.15094271,
        "meta_eccentricity": 0.00825209,
        "meta_inclination": 99.0431,
        "meta_ra_of_asc_node": 52.9372,
        "meta_arg_of_pericenter": 60.4779,
        "meta_mean_anomaly": 91.3465,
        "meta_ephemeris_type": 0,
        "meta_classification_type": "U",
        "meta_norad_cat_id": 30266,
        "meta_element_set_no": 999,
        "meta_rev_at_epoch": 96817,
        "meta_bstar": 0.0012363711,
        "meta_mean_motion_dot": 2.433e-05,
        "meta_mean_motion_ddot": 0,
        "tle_line1": "1 30266U 99025YB  25348.69909021  .00002433  00000+0  12364-2 0  9999",
        "tle_line2": "2 30266  99.0431  52.9372 0082520  60.4779  91.3465 14.15094271968176"
      },
      "geometry": {
        "type": "Point",
        "coordinates": [
          51.67876702679487,
          13.755038903907366
        ]
      }
    },
    {
      "type": "Feature",
      "properties": {
        "norad_id": 30267,
        "name": "FENGYUN 1C DEB",
        "group": "fengyun-1c-debris",
        "lat": 18.361806741709636,
        "lon": 57.87772079176069,
        "alt_km": 847.7183704645777,
        "timestamp": "2025-12-15T15:53:20.127145+00:00",
        "meta_object_name": "FENGYUN 1C DEB",
        "meta_object_id": "1999-025YC",
        "meta_epoch": "2025-12-14T16:11:09.760128",
        "meta_mean_motion": 14.23622489,
        "meta_eccentricity": 0.00592233,
        "meta_inclination": 98.8503,
        "meta_ra_of_asc_node": 59.8487,
        "meta_arg_of_pericenter": 237.5814,
        "meta_mean_anomaly": 121.9627,
        "meta_ephemeris_type": 0,
        "meta_classification_type": "U",
        "meta_norad_cat_id": 30267,
        "meta_element_set_no": 999,
        "meta_rev_at_epoch": 97322,
        "meta_bstar": 0.0014132278,
        "meta_mean_motion_dot": 3.235e-05,
        "meta_mean_motion_ddot": 0,
        "tle_line1": "1 30267U 99025YC  25348.67441852  .00003235  00000+0  14132-2 0  9997",
        "tle_line2": "2 30267  98.8503  59.8487 0059223 237.5814 121.9627 14.23622489973227"
      },
      "geometry": {
        "type": "Point",
        "coordinates": [
          57.87772079176069,
          18.361806741709636
        ]
      }
    },
    {
      "type": "Feature",
      "properties": {
        "norad_id": 30270,
        "name": "FENGYUN 1C DEB",
        "group": "fengyun-1c-debris",
        "lat": -56.763582470848284,
        "lon": 169.77770889318887,
        "alt_km": 861.7335178345575,
        "timestamp": "2025-12-15T15:53:20.127154+00:00",
        "meta_object_name": "FENGYUN 1C DEB",
        "meta_object_id": "1999-025YF",
        "meta_epoch": "2025-12-14T15:29:50.317728",
        "meta_mean_motion": 14.11271973,
        "meta_eccentricity": 0.00075211,
        "meta_inclination": 98.7022,
        "meta_ra_of_asc_node": 2.3092,
        "meta_arg_of_pericenter": 153.9736,
        "meta_mean_anomaly": 323.075,
        "meta_ephemeris_type": 0,
        "meta_classification_type": "U",
        "meta_norad_cat_id": 30270,
        "meta_element_set_no": 999,
        "meta_rev_at_epoch": 97388,
        "meta_bstar": 0.00016889021,
        "meta_mean_motion_dot": 2.62e-06,
        "meta_mean_motion_ddot": 0,
        "tle_line1": "1 30270U 99025YF  25348.64572127  .00000262  00000+0  16889-3 0  9997",
        "tle_line2": "2 30270  98.7022   2.3092 0007521 153.9736 323.0750 14.11271973973888"
      },
      "geometry": {
        "type": "Point",
        "coordinates": [
          169.77770889318887,
          -56.763582470848284
        ]
      }
    },
    {
      "type": "Feature",
      "properties": {
        "norad_id": 30272,
        "name": "FENGYUN 1C DEB",
        "group": "fengyun-1c-debris",
        "lat": 33.39215050573143,
        "lon": -116.72305664478252,
        "alt_km": 817.6046412487567,
        "timestamp": "2025-12-15T15:53:20.127166+00:00",
        "meta_object_name": "FENGYUN 1C DEB",
        "meta_object_id": "1999-025YH",
        "meta_epoch": "2025-12-14T15:26:31.948512",
        "meta_mean_motion": 14.14721991,
        "meta_eccentricity": 0.00508282,
        "meta_inclination": 98.9011,
        "meta_ra_of_asc_node": 56.3321,
        "meta_arg_of_pericenter": 98.5221,
        "meta_mean_anomaly": 262.1716,
        "meta_ephemeris_type": 0,
        "meta_classification_type": "U",
        "meta_norad_cat_id": 30272,
        "meta_element_set_no": 999,
        "meta_rev_at_epoch": 96883,
        "meta_bstar": 0.0011349048,
        "meta_mean_motion_dot": 2.169e-05,
        "meta_mean_motion_ddot": 0,
        "tle_line1": "1 30272U 99025YH  25348.64342533  .00002169  00000+0  11349-2 0  9998",
        "tle_line2": "2 30272  98.9011  56.3321 0050828  98.5221 262.1716 14.14721991968832"
      },
      "geometry": {
        "type": "Point",
        "coordinates": [
          -116.72305664478252,
          33.39215050573143
        ]
      }
    },
    {
      "type": "Feature",
      "properties": {
        "norad_id": 30273,
        "name": "FENGYUN 1C DEB",
        "group": "fengyun-1c-debris",
        "lat": -3.3014890193982085,
        "lon": 4.653514229310271,
        "alt_km": 906.5594400603622,
        "timestamp": "2025-12-15T15:53:20.127176+00:00",
        "meta_object_name": "FENGYUN 1C DEB",
        "meta_object_id": "1999-025YJ",
        "meta_epoch": "2025-12-14T20:13:03.943200",
        "meta_mean_motion": 14.02663868,
        "meta_eccentricity": 0.00603955,
        "meta_inclination": 98.8406,
        "meta_ra_of_asc_node": 3.3436,
        "meta_arg_of_pericenter": 243.5588,
        "meta_mean_anomaly": 296.0703,
        "meta_ephemeris_type": 0,
        "meta_classification_type": "U",
        "meta_norad_cat_id": 30273,
        "meta_element_set_no": 999,
        "meta_rev_at_epoch": 96558,
        "meta_bstar": 0.00050474293,
        "meta_mean_motion_dot": 7.48e-06,
        "meta_mean_motion_ddot": 0,
        "tle_line1": "1 30273U 99025YJ  25348.84240675  .00000748  00000+0  50474-3 0  9999",
        "tle_line2": "2 30273  98.8406   3.3436 0060395 243.5588 296.0703 14.02663868965583"
      },
      "geometry": {
        "type": "Point",
        "coordinates": [
          4.653514229310271,
          -3.3014890193982085
        ]
      }
    }
  ]
}